WORLDVIEW-1 (WV-1)      
1 32060U 07041A   26162.64628874  .00005369  00000+0  22320-3 0  9999
2 32060  97.3865 282.4701 0002767  36.7309 323.4118 15.24205668 42035
WORLDVIEW-2 (WV-2)      
1 35946U 09055A   26162.66649685  .00000081  00000+0  41340-4 0  9997
2 35946  98.4736 236.1920 0003406 227.5930 132.4970 14.37897773874854
YAOGAN-10               
1 36834U 10038A   26162.75954331  .00001471  00000+0  17735-3 0  9998
2 36834  97.8982 186.2070 0001640  89.5233 330.1964 14.85331534856400
VNREDSAT 1              
1 39160U 13021B   26162.69274749  .00000505  00000+0  10308-3 0  9995
2 39160  97.9086 216.3199 0001662  89.0626 271.0768 14.64851396699481
WORLDVIEW-3 (WV-3)      
1 40115U 14048A   26162.64216257  .00000732  00000+0  92025-4 0  9991
2 40115  97.8566 237.5515 0001423  34.2805 325.8502 14.85012907641085
YAOGAN-21               
1 40143U 14053A   26162.72123655  .00006305  00000+0  24540-3 0  9994
2 40143  97.1480 203.1919 0009845 109.4222 250.8082 15.26291343654123
UMBRA-09                
1 60541U 24149CB  26162.20058949  .00015072  00000+0  74677-3 0  9998
2 60541  97.6973 249.3043 0000458 301.5403  58.5786 15.17858533 99819
UMBRA-10                
1 60547U 24149CH  26162.20014502  .00013946  00000+0  69134-3 0  9991
2 60547  97.6975 249.3315 0000840  65.5458 294.5863 15.17860045 99821
UMBRA-11                
1 66748U 25276CL  26162.68528075  .00020906  00000+0  80229-3 0  9991
2 66748  97.4205 237.3500 0001448  26.8597 333.2716 15.26497606 29657
UMBRA-12                
1 67371U 26004J   26162.59781523  .00004120  00000+0  44056-3 0  9991
2 67371  97.8007 161.4451 0007213 138.5765 221.6000 14.89272067 22479
